[Satellite]
VERSION=1.1
NAME=AC 10 PROBE (FULLER)
NICKNAME=AC 10 PROBE (FULLER)
TLE1=1 45528U 19022M   20127.21747035  .00063598  00000-0  20299-2 0  9994
TLE2=2 45528  51.6420 236.6637 0007619 169.0635 191.0514 15.31860506  2301
STATUS=0
